satname,norad_id,inclination_deg,eccentricity,mean_motion_rev_per_day,perigee_km,apogee_km,l1,l2
STARLINK-1316,45415,53.1548,0.0006572,15.37043718,450.36617448595644,459.34746156036636,1 45415U 20019BH  26144.39692446  .00043478  00000+0  11853-2 0  9996,2 45415  53.1548 135.7591 0006572  26.4182 333.7156 15.37043718341613
STARLINK-1286,45417,53.0456,0.0001198,15.62309538,380.17784797359127,381.7973342256191,1 45417U 20019BK  26144.35299623  .00043793  00000+0  48990-3 0  9997,2 45417  53.0456 125.2826 0001198 109.6280 250.4863 15.62309538341993
STARLINK-1308,45419,53.0463,0.0008331,15.64176813,369.98072710825454,381.2338158133625,1 45419U 20019BM  26144.97148424  .00090588  00000+0  92936-3 0  9992,2 45419  53.0463 141.8497 0008331   2.8886 357.2175 15.64176813341568
STARLINK-1329,45531,53.0422,0.0004763,15.71138188,352.43561988051806,358.8502186316018,1 45531U 20025A   26144.96213341  .00057161  00000+0  44586-3 0  9992,2 45531  53.0422  66.3455 0004763  90.9765 269.1798 15.71138188337403
STARLINK-1338,45532,53.045,0.0004581,15.66179646,366.7569923286137,372.9394964095036,1 45532U 20025B   26144.11221232  .00042768  00000+0  41080-3 0  9991,2 45532  53.0450  76.6433 0004581  61.3732 298.7743 15.66179646337180
STARLINK-1350,45535,53.0721,0.0001672,15.37891423,451.2035761178031,453.4876895102161,1 45535U 20025E   26144.93211649  .00008915  00000+0  24590-3 0  9998,2 45535  53.0721  34.5621 0001672  75.8696 284.2493 15.37891423337884
STARLINK-1362,45538,53.1567,0.0003531,15.35470356,457.1093867836307,461.93814281573304,1 45538U 20025H   26144.88221442 -.00121166  00000+0 -35097-2 0  9996,2 45538  53.1567 105.7142 0003531  75.8560 284.2835 15.35470356336864
STARLINK-1368,45540,53.1557,0.0004796,15.35883202,455.01964490572846,461.57715374075906,1 45540U 20025K   26144.89586474  .00047478  00000+0  13422-2 0  9998,2 45540  53.1557 106.0211 0004796  71.4558 288.6966 15.35883202336850
STARLINK-1371,45542,53.0442,0.0006368,15.59319372,385.31602921071044,393.9354518370419,1 45542U 20025M   26144.85699808  .00083278  00000+0  10331-2 0  9996,2 45542  53.0442  82.0175 0006368  71.7524 288.4180 15.59319372337179
STARLINK-1372,45543,53.1565,0.0004275,15.36397625,453.8503880605613,459.69423552214266,1 45543U 20025N   26144.85916662  .00041719  00000+0  11624-2 0  9997,2 45543  53.1565 105.7450 0004275  62.8211 297.3227 15.36397625335952
STARLINK-1373,45544,53.0447,0.0004052,15.67949545,362.0369861280733,367.5014373220565,1 45544U 20025P   26144.53040203  .00048856  00000+0  43593-3 0  9992,2 45544  53.0447  80.0188 0004052  39.0268 321.1039 15.67949545337176
STARLINK-1327,45555,53.042,0.000514,15.65637036,367.9380086737974,374.8765401879118,1 45555U 20025AA  26144.93319949  .00043370  00000+0  42555-3 0  9997,2 45555  53.0420  54.9488 0005140  45.8716 314.2720 15.65637036337553
STARLINK-1356,45564,53.0449,0.0003297,15.55909047,397.27683790091305,401.74601927472304,1 45564U 20025AK  26144.78448165  .00070117  00000+0  99144-3 0  9998,2 45564  53.0449  68.3446 0003297  52.4524 307.6785 15.55909047337357
STARLINK-1357,45565,53.0464,0.0007475,15.67614044,360.6902144427431,370.7722974854096,1 45565U 20025AL  26144.94294822  .00052684  00000+0  47546-3 0  9994,2 45565  53.0464  24.9991 0007475  81.4298 278.7564 15.67614044337985
STARLINK-1361,45567,53.0439,0.0001475,15.59699361,387.52839460451196,389.5245603303638,1 45567U 20025AN  26144.96736746  .00080044  00000+0  98010-3 0  9997,2 45567  53.0439  65.6910 0001475  62.1826 297.9335 15.59699361337412
STARLINK-1363,45568,53.0285,0.0006769,16.1052714,240.91413163409652,249.88107277856307,1 45568U 20025AP  26145.02261414  .00692088  26960-3  69156-3 0  9994,2 45568  53.0285   9.0940 0006769 253.9508 106.0780 16.10527140338198
STARLINK-1366,45569,53.0326,0.0004234,16.02163614,265.6139780363519,271.24228939158183,1 45569U 20025AQ  26144.92565511  .00372486  71898-4  62990-3 0  9995,2 45569  53.0326  12.0322 0004234 256.8423 103.2134 16.02163614338146
STARLINK-1376,45570,53.1562,0.0005416,15.3677425,451.954373708546,459.3567378049429,1 45570U 20025AR  26144.96921064  .00043094  00000+0  11855-2 0  9995,2 45570  53.1562  81.6624 0005416  63.4156 296.7402 15.36774250337208
STARLINK-1320,45572,53.0441,0.0004735,15.8236619,320.57784577201346,326.9245338877827,1 45572U 20025AT  26144.80728730  .00111973  00000+0  52549-3 0  9993,2 45572  53.0441 326.3491 0004735 271.9985  88.0494 15.82366190338806
STARLINK-1321,45573,53.0431,0.0004837,15.60588852,382.683238771835,389.2268214017404,1 45573U 20025AU  26144.92131740  .00080497  00000+0  95230-3 0  9996,2 45573  53.0431  49.9110 0004837  81.1449 279.0111 15.60588852337322
STARLINK-1331,45578,53.0471,0.0005723,15.60458449,382.46055638233975,390.20316744168395,1 45578U 20025AZ  26144.94311569  .00065909  00000+0  78600-3 0  9995,2 45578  53.0471  56.6816 0005723  60.6857 299.4727 15.60458449337540
STARLINK-1333,45580,53.155,0.0003355,15.33793339,462.2112517973401,466.80266589372513,1 45580U 20025BB  26144.85933069  .00041438  00000+0  12545-2 0  9999,2 45580  53.1550  83.3903 0003355  85.0667 275.0718 15.33793339337174
STARLINK-1335,45581,53.1535,0.0004372,15.35299744,457.04067076024694,463.0199642626785,1 45581U 20025BC  26144.96853868  .00041917  00000+0  12095-2 0  9992,2 45581  53.1535  79.7620 0004372  79.0405 281.1089 15.35299744337224
STARLINK-1337,45582,53.0476,0.000693,15.72111701,348.1981696684743,357.52733532543607,1 45582U 20025BD  26144.96793909  .00064565  00000+0  48207-3 0  9991,2 45582  53.0476  47.0734 0006930  67.7838 292.3914 15.72111701337664
STARLINK-1347,45586,53.0399,0.0004458,15.66788256,365.093180773767,371.1081262656462,1 45586U 20025BH  26144.90862427  .00049464  00000+0  46246-3 0  9993,2 45586  53.0399  17.2943 0004458  95.6898 264.4626 15.66788256338076
STARLINK-1364,45589,53.043,0.0001641,15.65742168,369.9975876186945,372.2126888884686,1 45589U 20025BL  26145.00002315  .01266204  00000+0  10978-1 0  9995,2 45589  53.0430  53.6102 0001641  87.8599 348.5229 15.65742168  5950
STARLINK-1365,45590,53.0468,0.0005066,15.56472416,394.4431441677816,401.30860040998505,1 45590U 20025BM  26144.56584773  .00073034  00000+0  10105-2 0  9999,2 45590  53.0468  88.7841 0005066  43.3932 316.7477 15.56472416337063
STARLINK-1443,45660,53.1334,0.0004428,15.31140671,469.37441216294246,475.4412546674148,1 45660U 20035D   26144.96099246  .00040784  00000+0  13417-2 0  9993,2 45660  53.1334  71.3993 0004428  59.7809 300.3630 15.31140671330426
STARLINK-1446,45663,53.0235,0.000411,15.46540289,424.05914234778083,429.6528465892334,1 45663U 20035G   26144.89929334  .00018457  00000+0  37309-3 0  9997,2 45663  53.0235 356.3753 0004110 129.2460 230.8912 15.46540289331451
STARLINK-1448,45665,53.0451,0.0006671,15.66413054,364.67675831830365,373.6790258473202,1 45665U 20035J   26144.94084344  .00054886  00000+0  51972-3 0  9996,2 45665  53.0451  41.1491 0006671  63.6536 296.5163 15.66413054330828
STARLINK-1451,45668,53.0514,0.0002977,15.13464455,523.5890286361682,527.6995400128544,1 45668U 20035M   26144.96448522  .00020783  00000+0  11619-2 0  9995,2 45668  53.0514  80.6950 0002977  71.3920 288.7395 15.13464455330280
STARLINK-1452,45669,53.0267,8.37e-05,15.56017843,398.62823561954156,399.76276107976537,1 45669U 20035N   26144.92589313  .00077482  00000+0  10896-2 0  9990,2 45669  53.0267  15.3622 0000837 228.7204 131.3734 15.56017843331196
STARLINK-1453,45670,53.0416,0.0002377,15.66689556,366.78034034766733,369.98763642554604,1 45670U 20035P   26144.91200412  .00054234  00000+0  50842-3 0  9997,2 45670  53.0416   1.6264 0002377 147.8946 212.2215 15.66689556331278
STARLINK-1454,45671,53.044,0.0002951,15.6495752,371.3685670150744,375.3533010957535,1 45671U 20035Q   26144.93217378  .00048542  00000+0  48855-3 0  9995,2 45671  53.0440  42.2683 0002951  46.6149 313.5111 15.64957520330806
STARLINK-1456,45673,53.042,0.0005924,15.63410733,373.8111146414021,381.8155646037867,1 45673U 20035S   26144.95351732  .00086616  00000+0  91721-3 0  9996,2 45673  53.0420  36.6310 0005924 101.7094 258.4585 15.63410733330907
STARLINK-1458,45675,53.0466,0.0004677,15.54203442,401.29688917659314,407.64133893568123,1 45675U 20035U   26144.96034522  .00081799  00000+0  12280-2 0  9993,2 45675  53.0466  50.2713 0004677  55.3252 304.8198 15.54203442330679
STARLINK-1460,45676,53.1567,0.0004197,15.33649314,462.06330978497317,467.80738471325367,1 45676U 20035V   26144.96368229  .00024437  00000+0  74944-3 0  9990,2 45676  53.1567  70.0746 0004197  97.4168 262.7312 15.33649314330409
STARLINK-1392,45677,53.1526,0.0003367,15.36795475,453.2917168964468,457.8935504317569,1 45677U 20035W   26144.94572044  .00043691  00000+0  12011-2 0  9990,2 45677  53.1526  69.1175 0003367  99.7987 260.3397 15.36795475330457
STARLINK-1394,45679,53.0422,0.0006805,15.63029887,374.3125552901647,383.508897245616,1 45679U 20035Y   26144.95353591  .00090580  00000+0  97261-3 0  9997,2 45679  53.0422  26.8786 0006805 108.5972 251.5781 15.63029887331035
STARLINK-1402,45685,53.0423,0.000652,15.56129619,394.4523437120379,403.2895620826166,1 45685U 20035AE  26144.89510700  .00069734  00000+0  97751-3 0  9995,2 45685  53.0423  17.2435 0006520 128.2352 231.9247 15.56129619331173
STARLINK-1404,45686,53.1587,0.0005,15.42708762,434.71062470457764,441.52688045715695,1 45686U 20035AF  26144.92947941  .00049332  00000+0  11148-2 0  9998,2 45686  53.1587  51.4353 0005000 111.0813 249.0728 15.42708762330708
STARLINK-1413,45689,53.1583,0.0003181,15.33605743,462.8881356334032,467.24178071919596,1 45689U 20035AJ  26144.93716015  .00039436  00000+0  12019-2 0  9990,2 45689  53.1583  54.8388 0003181 112.1376 247.9965 15.33605743330576
STARLINK-1417,45693,53.0503,0.0006129,15.16015524,513.6706578236208,522.1238165915902,1 45693U 20035AN  26144.95530878  .00023240  00000+0  12067-2 0  9997,2 45693  53.0503  67.6541 0006129  92.0693 268.1002 15.16015524330455
